{
    "links": {
        "self": "http://www.neowsapp.com/rest/v1/neo/3589134?api_key=iIulBulltgU6a56xZRHN4H3l9WmuAYTsLGpBGhQ2"
    },
    "id": "3589134",
    "neo_reference_id": "3589134",
    "name": "(2011 WQ41)",
    "designation": "2011 WQ41",
    "nasa_jpl_url": "http://ssd.jpl.nasa.gov/sbdb.cgi?sstr=3589134",
    "absolute_magnitude_h": 22.6,
    "estimated_diameter": {
        "kilometers": {
            "estimated_diameter_min": 0.0802703167,
            "estimated_diameter_max": 0.1794898848
        },
        "meters": {
            "estimated_diameter_min": 80.2703167283,
            "estimated_diameter_max": 179.4898847799
        },
        "miles": {
            "estimated_diameter_min": 0.049877647,
            "estimated_diameter_max": 0.1115298092
        },
        "feet": {
            "estimated_diameter_min": 263.3540659348,
            "estimated_diameter_max": 588.8775935812
        }
    },
    "is_potentially_hazardous_asteroid": false,
    "close_approach_data": [
        {
            "close_approach_date": "2011-09-30",
            "close_approach_date_full": "2011-Sep-30 16:08",
            "epoch_date_close_approach": 1317398880000,
            "relative_velocity": {
                "kilometers_per_second": "3.9751454548",
                "kilometers_per_hour": "14310.5236371319",
                "miles_per_hour": "8892.0028677501"
            },
            "miss_distance": {
                "astronomical": "0.2078313468",
                "lunar": "80.8463939052",
                "kilometers": "31091126.800511316",
                "miles": "19319130.3538595208"
            },
            "orbiting_body": "Earth"
        }
    ],
    "orbital_data": {
        "orbit_id": "5",
        "orbit_determination_date": "2017-04-06 08:51:55",
        "first_observation_date": "2011-11-24",
        "last_observation_date": "2011-11-30",
        "data_arc_in_days": 6,
        "observations_used": 28,
        "orbit_uncertainty": "9",
        "minimum_orbit_intersection": ".157196",
        "jupiter_tisserand_invariant": "3.943",
        "epoch_osculation": "2455891.5",
        "eccentricity": ".3696029971350472",
        "semi_major_axis": "1.830818556708497",
        "inclination": "3.162435696184494",
        "ascending_node_longitude": "325.3257736829088",
        "orbital_period": "904.8287374726027",
        "perihelion_distance": "1.154142530938575",
        "perihelion_argument": "44.30926692866295",
        "aphelion_distance": "2.507494582478419",
        "perihelion_time": "2455830.357192174532",
        "mean_anomaly": "24.3266044783806",
        "mean_motion": ".3978653474309004",
        "equinox": "J2000",
        "orbit_class": {
            "orbit_class_type": "AMO",
            "orbit_class_description": "Near-Earth asteroid orbits similar to that of 1221 Amor",
            "orbit_class_range": "1.017 AU < q (perihelion) < 1.3 AU"
        }
    },
    "is_sentry_object": false
}